CZ-2C R/B               
1 54039U 22132E   25353.94239709  .00022653  00000+0  33248-3 0  9992
2 54039  97.2938 350.2808 0022037  32.7354 327.5261 15.55236994177959
GSLV R/B                
1 54149U 22138AN  25354.48046821  .00001697  00000+0  14729-3 0  9999
2 54149  87.3823 192.8814 0024154  80.2368 280.1589 14.96165446172089
XRISM                   
1 57800U 23137A   25354.50024025  .00003644  00000+0  21069-3 0  9990
2 57800  31.0028  75.4364 0007686 323.1462  36.8647 15.10405847125808
ACS3                    
1 59588U 24077B   25354.48016603  .00014737  00000+0  12568-1 0  9996
2 59588  97.2632 308.3566 0076054 319.2515  40.2973 13.85817665 83214
SZ-21 MODULE            
1 66515U 25246C   25354.01665032  .00020613  00000+0  22500-3 0  9997
2 66515  41.4774 331.6436 0005613 298.6843  61.3432 15.62845969  5585
